#aV2024  9 14  0  0  0.00000000     288 DD+AD WGS84 FIT  NGA
## 2331 518400.00000000   300.00000000 60567 0.0000000000000
+   31     2  3  4  5  6  7  8  9 10 11 12 13 14 15 16 17 18
+         19 20 21 22 23 24 25 26 27 28 29 30 31 32  0  0  0
+          0  0  0  0  0  0  0  0  0  0  0  0  0  0  0  0  0
+          0  0  0  0  0  0  0  0  0  0  0  0  0  0  0  0  0
+          0  0  0  0  0  0  0  0  0  0  0  0  0  0  0  0  0
++         2  2  2  2  2  2  2  2  2  2  2  2  2  2  2  2  2
++         2  2  2  2  2  2  2  2  2  2  2  2  2  2  0  0  0
++         0  0  0  0  0  0  0  0  0  0  0  0  0  0  0  0  0
++         0  0  0  0  0  0  0  0  0  0  0  0  0  0  0  0  0
++         0  0  0  0  0  0  0  0  0  0  0  0  0  0  0  0  0
%c cc cc ccc ccc cccc cccc cccc cccc ccccc ccccc ccccc ccccc
%c cc cc ccc ccc cccc cccc cccc cccc ccccc ccccc ccccc ccccc
%f  0.0000000  0.000000000  0.00000000000  0.000000000000000
%f  0.0000000  0.000000000  0.00000000000  0.000000000000000
%i    0    0    0    0      0      0      0      0         0
%i    0    0    0    0      0      0      0      0         0
/*      NGA, ST. LOUIS,MO.                                  
/*   EPHEMERIS COMPUTED FROM 2 DAYS OF DATA                 
/*   EPOCHA v9 SMOOTHER                                     
/*   G2296 IERS2010 SATIGS SATAPC                           
*  2024  9 14  8 10  0.00000000
P  2  19874.532195   9032.092890  15825.811127   -358.392436                    
V  2   9909.855134  16394.098554 -22154.638467      0.079440                    
P  3  17230.661639  -4089.432801  19590.206680    537.126432                    
V  3 -11536.758983  22440.905978  14811.339824      0.132062                    
P  4  26628.795298    756.212096    223.163049    443.366740                    
V  4   -323.258931   2535.419362  31766.443844      0.071279                    
P  5 -10018.787559 -12508.980761 -21351.732924   -186.536521                    
V  5  12453.778839 -23581.545498   8106.848498     -0.012563                    
P  6  -2511.907672 -22561.136929  13766.516191     31.926714                    
V  6   9963.500599  14298.633720  25473.148517     -0.259847                    
P  7  12942.869053  -7934.834655 -21262.670679    -38.084882                    
V  7  14667.815072  24204.125129   -549.371958      0.045627                    
P  8  23118.209034   7127.214591 -11560.357502    351.907912                    
V  8 -14242.119040   2988.033651 -26473.412229      0.130364                    
P  9  23420.860680  -7851.958498  -9930.693197    355.862783                    
V  9  12546.184516   2012.680481  28200.670558      0.160420                    
P 10  -9639.600834  24056.585229   5135.252261   -124.785713                    
V 10  -5031.044460   4390.893487 -31626.740918     -0.122629                    
P 11 -12585.940864 -23431.923472   -122.032860   -734.375925                    
V 11   2190.253981  -1384.690795  31834.192847     -0.042631                    
P 12 -16639.279447   -581.080119  20402.943840   -537.929134                    
V 12  13711.411421 -22761.799927  10436.227937     -0.028072                    
P 13 -16191.679029 -13488.366297 -16536.726585    676.389979                    
V 13  20462.845392   1242.347506 -21110.680773      0.020394                    
P 14  12697.321736 -23161.134213   1164.489125    495.217100                    
V 14   3760.985821    550.001137 -31495.682730      0.085551                    
P 15 -23703.903962  -4717.623589 -11720.711324    204.101604                    
V 15  13429.739623  -5083.487518 -26120.380221      0.043923                    
P 16   5831.377847  16503.736114 -20181.634033   -181.457114                    
V 16 -15110.611567  19980.286990  12617.646663      0.101983                    
P 17  10229.792548 -13811.520142  20718.116540    627.271907                    
V 17  25229.408947   1966.218786 -11212.139943     -0.112345                    
P 18 -12191.475385   8648.541089 -21926.161420   -653.228409                    
V 18 -13992.324832 -24088.200044  -1936.358045     -0.022186                    
P 19    313.964654 -15048.570880  21740.600391    537.855905                    
V 19  27817.126909   2650.371547   1009.919562      0.049251                    
P 20  -3845.879290 -21556.521542 -15067.866157    370.657365                    
V 20   8224.996149 -17484.038115  22660.156554     -0.003811                    
P 21  20172.709494  14504.258576  11152.315427    101.784366                    
V 21   6530.686943  11558.218772 -26835.517262     -0.007466                    
P 22   8018.983045 -23722.037568   9703.026769    -61.679691                    
V 22   8413.745015  -8350.393836 -28293.085778     -0.037624                    
P 23 -16187.491301  19311.705105  -7998.740738    319.806673                    
V 23   2787.087578 -10096.324890 -30124.151600      0.084173                    
P 24 -20202.609663 -11237.942275  12986.198129   -486.696750                    
V 24  -7960.828992 -15396.402987 -24455.437182      0.002827                    
P 25 -18242.012531  12292.209752  14356.853869    499.615361                    
V 25   6624.612772 -17950.580360  23495.042093      0.000516                    
P 26  -1747.864281  23916.424531 -11159.387151     79.249394                    
V 26  -9009.046004  11428.976615  26658.757612     -0.084782                    
P 27  14017.490308  12951.658026 -18936.511609    -33.838267                    
V 27 -23263.301685   1628.150938 -15942.978487     -0.001292                    
P 28   1275.459731  21721.444881  15218.192551   -410.549526                    
V 28 -12094.176473 -15229.488979  22734.727718     -0.139189                    
P 29 -25237.211966   3688.812604  -7686.567044   -577.955504                    
V 29  -9497.756502  -2873.888063  29846.548271      0.024679                    
P 30   5227.770806 -17975.773313 -18588.547868   -321.601996                    
V 30  13995.608560  19709.679049 -15266.654914      0.071334                    
P 31  10029.115589  23946.178367   4306.672484   -224.721010                    
V 31  -5742.365382  -3438.700094  31229.344846      0.004584                    
P 32  -7961.027576  14679.058792  20824.328259   -597.305419                    
V 32 -26009.844402   -329.648562 -10011.376782      0.036234                    
EOF
